STARLINK-36334          
1 67471U 26008AC  26039.83335647 -.02026692  00000+0 -43166-1 0  9999
2 67471  42.9999   9.0280 0000918 252.6630 307.9936 15.47535028  5158
STARLINK-36269          
1 67472U 26008AD  26039.83335647 -.00004121  00000+0 -64488-4 0  9994
2 67472  42.9996   9.0992 0001098 241.0789 290.0769 15.50570930  5176
STARLINK-36408          
1 67473U 26008AE  26039.83335647 -.00034722  00000+0 -58836-3 0  9994
2 67473  43.0000   9.2127 0000921 266.6173 218.3216 15.50594719  5172
ALSAT-3A                
1 67474U 26009A   26039.84441806  .00007106  00000+0  30053-3 0  9997
2 67474  97.4675 114.5027 0012446 169.4043 190.7458 15.23451098  3737
CZ-2C R/B               
1 67475U 26009B   26039.77834714  .00003386  00000+0  22860-3 0  9997
2 67475  97.1751 112.4524 0100453 138.0591 222.8386 15.03128737  3731
TIANQI-37               
1 67476U 26010A   26039.27753693  .00000165  00000+0  15719-3 0  9998
2 67476  44.9825 296.6529 0012909  70.2546 289.9683 14.13528441  3324
TIANQI-38               
1 67477U 26010B   26039.27310946  .00000208  00000+0  17865-3 0  9991
2 67477  44.9788 296.6199 0011754  75.6443 284.5700 14.13905796  3321
TIANQI-39               
1 67478U 26010C   26039.27859865  .00000167  00000+0  15988-3 0  9998
2 67478  44.9839 296.6613 0016488  82.3005 277.9705 14.13055169  3329
TIANQI-40               
1 67479U 26010D   26039.27350164  .00000207  00000+0  17842-3 0  9993
2 67479  44.9833 296.6296 0012352  83.3775 276.8469 14.13804029  3324
SZ-20 MODULE            
1 67481U 25082C   26039.37143148  .00025723  00000+0  28324-3 0  9994
2 67481  41.4800  26.0548 0006600 131.0309 229.1102 15.62513301273038
2025-313BE              
1 67482U 25313BE  26036.72310125  .00103503  00000+0  40965-2 0  9996
2 67482  97.4069 113.6274 0008903 100.3384 259.8858 15.24973835  3091
ION SCV-021             
1 67483U 25276DT  26034.18647169 -.00137880  00000+0 -12184-1 0  9992
2 67483  97.5347 109.4970 0011364 207.9438 152.1175 14.97059561  2554
